{
  "type": "FeatureCollection",
  "features": [
    {
      "type": "Feature",
      "properties": {
        "norad_id": 66174,
        "name": "HTV-X1",
        "group": "stations",
        "lat": -3.2936883477949066,
        "lon": -74.32791832021903,
        "alt_km": 418.9058035900671,
        "timestamp": "2025-12-20T16:47:35.053417+00:00",
        "meta_object_name": "HTV-X1",
        "meta_object_id": "2025-241A",
        "meta_epoch": "2025-12-20T05:10:04.568160",
        "meta_mean_motion": 15.49679666,
        "meta_eccentricity": 0.00031985,
        "meta_inclination": 51.6321,
        "meta_ra_of_asc_node": 105.4589,
        "meta_arg_of_pericenter": 275.1086,
        "meta_mean_anomaly": 84.9538,
        "meta_ephemeris_type": 0,
        "meta_classification_type": "U",
        "meta_norad_cat_id": 66174,
        "meta_element_set_no": 999,
        "meta_rev_at_epoch": 51,
        "meta_bstar": 0.00013176766,
        "meta_mean_motion_dot": 6.989e-05,
        "meta_mean_motion_ddot": 0,
        "tle_line1": "1 66174U 25241A   25354.21533065  .00006989  00000+0  13177-3 0  9995",
        "tle_line2": "2 66174  51.6321 105.4589 0003198 275.1086  84.9538 15.49679666   518"
      },
      "geometry": {
        "type": "Point",
        "coordinates": [
          -74.32791832021903,
          -3.2936883477949066
        ]
      }
    },
    {
      "type": "Feature",
      "properties": {
        "norad_id": 66515,
        "name": "SZ-21 MODULE",
        "group": "stations",
        "lat": -37.910624785063135,
        "lon": -150.69303911767375,
        "alt_km": 380.1825720948118,
        "timestamp": "2025-12-20T16:47:35.053429+00:00",
        "meta_object_name": "SZ-21 MODULE",
        "meta_object_id": "2025-246C",
        "meta_epoch": "2025-12-20T00:23:58.587648",
        "meta_mean_motion": 15.62845969,
        "meta_eccentricity": 0.00056139,
        "meta_inclination": 41.4774,
        "meta_ra_of_asc_node": 331.6436,
        "meta_arg_of_pericenter": 298.6843,
        "meta_mean_anomaly": 61.3432,
        "meta_ephemeris_type": 0,
        "meta_classification_type": "U",
        "meta_norad_cat_id": 66515,
        "meta_element_set_no": 999,
        "meta_rev_at_epoch": 558,
        "meta_bstar": 0.00022500266,
        "meta_mean_motion_dot": 0.00020613,
        "meta_mean_motion_ddot": 0,
        "tle_line1": "1 66515U 25246C   25354.01665032  .00020613  00000+0  22500-3 0  9997",
        "tle_line2": "2 66515  41.4774 331.6436 0005613 298.6843  61.3432 15.62845969  5585"
      },
      "geometry": {
        "type": "Point",
        "coordinates": [
          -150.69303911767375,
          -37.910624785063135
        ]
      }
    },
    {
      "type": "Feature",
      "properties": {
        "norad_id": 66645,
        "name": "SHENZHOU-22",
        "group": "stations",
        "lat": -36.48967326777436,
        "lon": -154.74347565218437,
        "alt_km": 396.166911588758,
        "timestamp": "2025-12-20T16:47:35.053440+00:00",
        "meta_object_name": "SHENZHOU-22",
        "meta_object_id": "2025-272A",
        "meta_epoch": "2025-12-20T04:59:38.766912",
        "meta_mean_motion": 15.59496428,
        "meta_eccentricity": 0.00077465,
        "meta_inclination": 41.4685,
        "meta_ra_of_asc_node": 331.3573,
        "meta_arg_of_pericenter": 96.7908,
        "meta_mean_anomaly": 263.3812,
        "meta_ephemeris_type": 0,
        "meta_classification_type": "U",
        "meta_norad_cat_id": 66645,
        "meta_element_set_no": 999,
        "meta_rev_at_epoch": 26519,
        "meta_bstar": 0.00022776024,
        "meta_mean_motion_dot": 0.00018311,
        "meta_mean_motion_ddot": 0,
        "tle_line1": "1 66645U 25272A   25354.20808758  .00018311  00000+0  22776-3 0  9992",
        "tle_line2": "2 66645  41.4685 331.3573 0007746  96.7908 263.3812 15.59496428265196"
      },
      "geometry": {
        "type": "Point",
        "coordinates": [
          -154.74347565218437,
          -36.48967326777436
        ]
      }
    },
    {
      "type": "Feature",
      "properties": {
        "norad_id": 66664,
        "name": "SOYUZ-MS 28",
        "group": "stations",
        "lat": -3.294161637177789,
        "lon": -74.32742014020975,
        "alt_km": 418.9072986147121,
        "timestamp": "2025-12-20T16:47:35.053449+00:00",
        "meta_object_name": "SOYUZ-MS 28",
        "meta_object_id": "2025-275A",
        "meta_epoch": "2025-12-20T06:42:56.229408",
        "meta_mean_motion": 15.4968092,
        "meta_eccentricity": 0.0003193,
        "meta_inclination": 51.632,
        "meta_ra_of_asc_node": 105.1395,
        "meta_arg_of_pericenter": 275.4219,
        "meta_mean_anomaly": 84.6406,
        "meta_ephemeris_type": 0,
        "meta_classification_type": "U",
        "meta_norad_cat_id": 66664,
        "meta_element_set_no": 999,
        "meta_rev_at_epoch": 361,
        "meta_bstar": 0.00013442,
        "meta_mean_motion_dot": 7.139e-05,
        "meta_mean_motion_ddot": 0,
        "tle_line1": "1 66664U 25275A   25354.27981747  .00007139  00000+0  13442-3 0  9999",
        "tle_line2": "2 66664  51.6320 105.1395 0003193 275.4219  84.6406 15.49680920  3619"
      },
      "geometry": {
        "type": "Point",
        "coordinates": [
          -74.32742014020975,
          -3.294161637177789
        ]
      }
    },
    {
      "type": "Feature",
      "properties": {
        "norad_id": 66906,
        "name": "1998-067XS",
        "group": "stations",
        "lat": -46.18381462759725,
        "lon": -21.410436749018793,
        "alt_km": 416.32074495418783,
        "timestamp": "2025-12-20T16:47:35.053460+00:00",
        "meta_object_name": "1998-067XS",
        "meta_object_id": "1998-067XS",
        "meta_epoch": "2025-12-20T11:05:35.991168",
        "meta_mean_motion": 15.50962254,
        "meta_eccentricity": 0.0003003,
        "meta_inclination": 51.6311,
        "meta_ra_of_asc_node": 104.1082,
        "meta_arg_of_pericenter": 237.5,
        "meta_mean_anomaly": 122.5699,
        "meta_ephemeris_type": 0,
        "meta_classification_type": "U",
        "meta_norad_cat_id": 66906,
        "meta_element_set_no": 999,
        "meta_rev_at_epoch": 281,
        "meta_bstar": 0.00037246,
        "meta_mean_motion_dot": 0.00021596,
        "meta_mean_motion_ddot": 0,
        "tle_line1": "1 66906U 98067XS  25354.46222212  .00021596  00000+0  37246-3 0  9994",
        "tle_line2": "2 66906  51.6311 104.1082 0003003 237.5000 122.5699 15.50962254  2819"
      },
      "geometry": {
        "type": "Point",
        "coordinates": [
          -21.410436749018793,
          -46.18381462759725
        ]
      }
    },
    {
      "type": "Feature",
      "properties": {
        "norad_id": 66907,
        "name": "1998-067XT",
        "group": "stations",
        "lat": -45.04452905849858,
        "lon": 50.30964687203672,
        "alt_km": 411.7679151085058,
        "timestamp": "2025-12-20T16:47:35.053471+00:00",
        "meta_object_name": "1998-067XT",
        "meta_object_id": "1998-067XT",
        "meta_epoch": "2025-12-19T11:42:50.767776",
        "meta_mean_motion": 15.52255247,
        "meta_eccentricity": 0.0003998,
        "meta_inclination": 51.6306,
        "meta_ra_of_asc_node": 108.8528,
        "meta_arg_of_pericenter": 265.7173,
        "meta_mean_anomaly": 94.336,
        "meta_ephemeris_type": 0,
        "meta_classification_type": "U",
        "meta_norad_cat_id": 66907,
        "meta_element_set_no": 999,
        "meta_rev_at_epoch": 266,
        "meta_bstar": 0.00077339,
        "meta_mean_motion_dot": 0.00047666,
        "meta_mean_motion_ddot": 0,
        "tle_line1": "1 66907U 98067XT  25353.48808759  .00047666  00000+0  77339-3 0  9995",
        "tle_line2": "2 66907  51.6306 108.8528 0003998 265.7173  94.3360 15.52255247  2660"
      },
      "geometry": {
        "type": "Point",
        "coordinates": [
          50.30964687203672,
          -45.04452905849858
        ]
      }
    },
    {
      "type": "Feature",
      "properties": {
        "norad_id": 66908,
        "name": "1998-067XU",
        "group": "stations",
        "lat": -42.74427817207578,
        "lon": 55.74638785607418,
        "alt_km": 411.47988292190075,
        "timestamp": "2025-12-20T16:47:35.053481+00:00",
        "meta_object_name": "1998-067XU",
        "meta_object_id": "1998-067XU",
        "meta_epoch": "2025-12-20T07:46:52.178592",
        "meta_mean_motion": 15.52443245,
        "meta_eccentricity": 0.0003897,
        "meta_inclination": 51.6312,
        "meta_ra_of_asc_node": 104.6877,
        "meta_arg_of_pericenter": 270.3762,
        "meta_mean_anomaly": 89.6781,
        "meta_ephemeris_type": 0,
        "meta_classification_type": "U",
        "meta_norad_cat_id": 66908,
        "meta_element_set_no": 999,
        "meta_rev_at_epoch": 279,
        "meta_bstar": 0.00082115,
        "meta_mean_motion_dot": 0.00051005,
        "meta_mean_motion_ddot": 0,
        "tle_line1": "1 66908U 98067XU  25354.32421503  .00051005  00000+0  82115-3 0  9998",
        "tle_line2": "2 66908  51.6312 104.6877 0003897 270.3762  89.6781 15.52443245  2798"
      },
      "geometry": {
        "type": "Point",
        "coordinates": [
          55.74638785607418,
          -42.74427817207578
        ]
      }
    }
  ]
}